<?xml version="1.0" encoding="UTF-8"?>
<ndm xmlns:xsi="http://www.w3.org/2001/XMLSchema-instance" xsi:noNamespaceSchemaLocation="https://sanaregistry.org/r/ndmxml_unqualified/ndmxml-2.0.0-master-2.0.xsd">
<omm id="CCSDS_OMM_VERS" version="2.0">
<header><CREATION_DATE/><ORIGINATOR/></header><body><segment><metadata><OBJECT_NAME>QIANFAN-25</OBJECT_NAME><OBJECT_ID>2024-185G</OBJECT_ID><CENTER_NAME>EARTH</CENTER_NAME><REF_FRAME>TEME</REF_FRAME><TIME_SYSTEM>UTC</TIME_SYSTEM><MEAN_ELEMENT_THEORY>SGP4</MEAN_ELEMENT_THEORY></metadata><data><meanElements><EPOCH>2025-11-22T12:13:37.005312</EPOCH><MEAN_MOTION>14.05882893</MEAN_MOTION><ECCENTRICITY>.00102091</ECCENTRICITY><INCLINATION>88.9806</INCLINATION><RA_OF_ASC_NODE>80.4740</RA_OF_ASC_NODE><ARG_OF_PERICENTER>23.4050</ARG_OF_PERICENTER><MEAN_ANOMALY>336.7595</MEAN_ANOMALY></meanElements><tleParameters><EPHEMERIS_TYPE>0</EPHEMERIS_TYPE><CLASSIFICATION_TYPE>U</CLASSIFICATION_TYPE><NORAD_CAT_ID>61558</NORAD_CAT_ID><ELEMENT_SET_NO>999</ELEMENT_SET_NO><REV_AT_EPOCH>6666</REV_AT_EPOCH><BSTAR>.30638306E-3</BSTAR><MEAN_MOTION_DOT>.515E-5</MEAN_MOTION_DOT><MEAN_MOTION_DDOT>0</MEAN_MOTION_DDOT></tleParameters></data></segment></body></omm>
<omm id="CCSDS_OMM_VERS" version="2.0">
<header><CREATION_DATE/><ORIGINATOR/></header><body><segment><metadata><OBJECT_NAME>QIANFAN-26</OBJECT_NAME><OBJECT_ID>2024-185H</OBJECT_ID><CENTER_NAME>EARTH</CENTER_NAME><REF_FRAME>TEME</REF_FRAME><TIME_SYSTEM>UTC</TIME_SYSTEM><MEAN_ELEMENT_THEORY>SGP4</MEAN_ELEMENT_THEORY></metadata><data><meanElements><EPOCH>2025-11-22T13:25:18.367968</EPOCH><MEAN_MOTION>13.77796028</MEAN_MOTION><ECCENTRICITY>.00073374</ECCENTRICITY><INCLINATION>88.9806</INCLINATION><RA_OF_ASC_NODE>81.9240</RA_OF_ASC_NODE><ARG_OF_PERICENTER>80.0629</ARG_OF_PERICENTER><MEAN_ANOMALY>280.1365</MEAN_ANOMALY></meanElements><tleParameters><EPHEMERIS_TYPE>0</EPHEMERIS_TYPE><CLASSIFICATION_TYPE>U</CLASSIFICATION_TYPE><NORAD_CAT_ID>61559</NORAD_CAT_ID><ELEMENT_SET_NO>999</ELEMENT_SET_NO><REV_AT_EPOCH>6589</REV_AT_EPOCH><BSTAR>.34300213E-3</BSTAR><MEAN_MOTION_DOT>.356E-5</MEAN_MOTION_DOT><MEAN_MOTION_DDOT>0</MEAN_MOTION_DDOT></tleParameters></data></segment></body></omm>
<omm id="CCSDS_OMM_VERS" version="2.0">
<header><CREATION_DATE/><ORIGINATOR/></header><body><segment><metadata><OBJECT_NAME>QIANFAN-27</OBJECT_NAME><OBJECT_ID>2024-185J</OBJECT_ID><CENTER_NAME>EARTH</CENTER_NAME><REF_FRAME>TEME</REF_FRAME><TIME_SYSTEM>UTC</TIME_SYSTEM><MEAN_ELEMENT_THEORY>SGP4</MEAN_ELEMENT_THEORY></metadata><data><meanElements><EPOCH>2025-11-22T13:23:20.908032</EPOCH><MEAN_MOTION>14.27295950</MEAN_MOTION><ECCENTRICITY>.0007735</ECCENTRICITY><INCLINATION>88.9801</INCLINATION><RA_OF_ASC_NODE>79.3049</RA_OF_ASC_NODE><ARG_OF_PERICENTER>11.8626</ARG_OF_PERICENTER><MEAN_ANOMALY>348.2749</MEAN_ANOMALY></meanElements><tleParameters><EPHEMERIS_TYPE>0</EPHEMERIS_TYPE><CLASSIFICATION_TYPE>U</CLASSIFICATION_TYPE><NORAD_CAT_ID>61560</NORAD_CAT_ID><ELEMENT_SET_NO>999</ELEMENT_SET_NO><REV_AT_EPOCH>6728</REV_AT_EPOCH><BSTAR>.2432568E-3</BSTAR><MEAN_MOTION_DOT>.61E-5</MEAN_MOTION_DOT><MEAN_MOTION_DDOT>0</MEAN_MOTION_DDOT></tleParameters></data></segment></body></omm>
<omm id="CCSDS_OMM_VERS" version="2.0">
<header><CREATION_DATE/><ORIGINATOR/></header><body><segment><metadata><OBJECT_NAME>QIANFAN-28</OBJECT_NAME><OBJECT_ID>2024-185K</OBJECT_ID><CENTER_NAME>EARTH</CENTER_NAME><REF_FRAME>TEME</REF_FRAME><TIME_SYSTEM>UTC</TIME_SYSTEM><MEAN_ELEMENT_THEORY>SGP4</MEAN_ELEMENT_THEORY></metadata><data><meanElements><EPOCH>2025-11-22T13:11:42.821952</EPOCH><MEAN_MOTION>14.27974296</MEAN_MOTION><ECCENTRICITY>.00069786</ECCENTRICITY><INCLINATION>88.9819</INCLINATION><RA_OF_ASC_NODE>79.3074</RA_OF_ASC_NODE><ARG_OF_PERICENTER>12.6561</ARG_OF_PERICENTER><MEAN_ANOMALY>347.4808</MEAN_ANOMALY></meanElements><tleParameters><EPHEMERIS_TYPE>0</EPHEMERIS_TYPE><CLASSIFICATION_TYPE>U</CLASSIFICATION_TYPE><NORAD_CAT_ID>61561</NORAD_CAT_ID><ELEMENT_SET_NO>999</ELEMENT_SET_NO><REV_AT_EPOCH>6729</REV_AT_EPOCH><BSTAR>.43157365E-3</BSTAR><MEAN_MOTION_DOT>.1084E-4</MEAN_MOTION_DOT><MEAN_MOTION_DDOT>0</MEAN_MOTION_DDOT></tleParameters></data></segment></body></omm>
<omm id="CCSDS_OMM_VERS" version="2.0">
<header><CREATION_DATE/><ORIGINATOR/></header><body><segment><metadata><OBJECT_NAME>QIANFAN-29</OBJECT_NAME><OBJECT_ID>2024-185L</OBJECT_ID><CENTER_NAME>EARTH</CENTER_NAME><REF_FRAME>TEME</REF_FRAME><TIME_SYSTEM>UTC</TIME_SYSTEM><MEAN_ELEMENT_THEORY>SGP4</MEAN_ELEMENT_THEORY></metadata><data><meanElements><EPOCH>2025-11-22T14:15:15.505344</EPOCH><MEAN_MOTION>13.51000604</MEAN_MOTION><ECCENTRICITY>.0011795</ECCENTRICITY><INCLINATION>88.9782</INCLINATION><RA_OF_ASC_NODE>83.3875</RA_OF_ASC_NODE><ARG_OF_PERICENTER>108.9361</ARG_OF_PERICENTER><MEAN_ANOMALY>251.3070</MEAN_ANOMALY></meanElements><tleParameters><EPHEMERIS_TYPE>0</EPHEMERIS_TYPE><CLASSIFICATION_TYPE>U</CLASSIFICATION_TYPE><NORAD_CAT_ID>61562</NORAD_CAT_ID><ELEMENT_SET_NO>999</ELEMENT_SET_NO><REV_AT_EPOCH>6507</REV_AT_EPOCH><BSTAR>.28319897E-3</BSTAR><MEAN_MOTION_DOT>.195E-5</MEAN_MOTION_DOT><MEAN_MOTION_DDOT>0</MEAN_MOTION_DDOT></tleParameters></data></segment></body></omm>
<omm id="CCSDS_OMM_VERS" version="2.0">
<header><CREATION_DATE/><ORIGINATOR/></header><body><segment><metadata><OBJECT_NAME>QIANFAN-30</OBJECT_NAME><OBJECT_ID>2024-185M</OBJECT_ID><CENTER_NAME>EARTH</CENTER_NAME><REF_FRAME>TEME</REF_FRAME><TIME_SYSTEM>UTC</TIME_SYSTEM><MEAN_ELEMENT_THEORY>SGP4</MEAN_ELEMENT_THEORY></metadata><data><meanElements><EPOCH>2025-11-22T13:17:05.980416</EPOCH><MEAN_MOTION>13.49979787</MEAN_MOTION><ECCENTRICITY>.00092659</ECCENTRICITY><INCLINATION>88.9802</INCLINATION><RA_OF_ASC_NODE>82.9094</RA_OF_ASC_NODE><ARG_OF_PERICENTER>96.6253</ARG_OF_PERICENTER><MEAN_ANOMALY>263.5952</MEAN_ANOMALY></meanElements><tleParameters><EPHEMERIS_TYPE>0</EPHEMERIS_TYPE><CLASSIFICATION_TYPE>U</CLASSIFICATION_TYPE><NORAD_CAT_ID>61563</NORAD_CAT_ID><ELEMENT_SET_NO>999</ELEMENT_SET_NO><REV_AT_EPOCH>6534</REV_AT_EPOCH><BSTAR>.42235208E-3</BSTAR><MEAN_MOTION_DOT>.28E-5</MEAN_MOTION_DOT><MEAN_MOTION_DDOT>0</MEAN_MOTION_DDOT></tleParameters></data></segment></body></omm>
<omm id="CCSDS_OMM_VERS" version="2.0">
<header><CREATION_DATE/><ORIGINATOR/></header><body><segment><metadata><OBJECT_NAME>QIANFAN-31</OBJECT_NAME><OBJECT_ID>2024-185N</OBJECT_ID><CENTER_NAME>EARTH</CENTER_NAME><REF_FRAME>TEME</REF_FRAME><TIME_SYSTEM>UTC</TIME_SYSTEM><MEAN_ELEMENT_THEORY>SGP4</MEAN_ELEMENT_THEORY></metadata><data><meanElements><EPOCH>2025-11-22T13:36:07.407360</EPOCH><MEAN_MOTION>13.57954258</MEAN_MOTION><ECCENTRICITY>.00087007</ECCENTRICITY><INCLINATION>88.9786</INCLINATION><RA_OF_ASC_NODE>82.7421</RA_OF_ASC_NODE><ARG_OF_PERICENTER>92.7785</ARG_OF_PERICENTER><MEAN_ANOMALY>267.4366</MEAN_ANOMALY></meanElements><tleParameters><EPHEMERIS_TYPE>0</EPHEMERIS_TYPE><CLASSIFICATION_TYPE>U</CLASSIFICATION_TYPE><NORAD_CAT_ID>61564</NORAD_CAT_ID><ELEMENT_SET_NO>999</ELEMENT_SET_NO><REV_AT_EPOCH>6542</REV_AT_EPOCH><BSTAR>.15330643E-3</BSTAR><MEAN_MOTION_DOT>.123E-5</MEAN_MOTION_DOT><MEAN_MOTION_DDOT>0</MEAN_MOTION_DDOT></tleParameters></data></segment></body></omm>
<omm id="CCSDS_OMM_VERS" version="2.0">
<header><CREATION_DATE/><ORIGINATOR/></header><body><segment><metadata><OBJECT_NAME>QIANFAN-32</OBJECT_NAME><OBJECT_ID>2024-185P</OBJECT_ID><CENTER_NAME>EARTH</CENTER_NAME><REF_FRAME>TEME</REF_FRAME><TIME_SYSTEM>UTC</TIME_SYSTEM><MEAN_ELEMENT_THEORY>SGP4</MEAN_ELEMENT_THEORY></metadata><data><meanElements><EPOCH>2025-11-22T14:34:22.275264</EPOCH><MEAN_MOTION>13.50724687</MEAN_MOTION><ECCENTRICITY>.00111237</ECCENTRICITY><INCLINATION>88.9846</INCLINATION><RA_OF_ASC_NODE>83.0319</RA_OF_ASC_NODE><ARG_OF_PERICENTER>118.9452</ARG_OF_PERICENTER><MEAN_ANOMALY>241.2815</MEAN_ANOMALY></meanElements><tleParameters><EPHEMERIS_TYPE>0</EPHEMERIS_TYPE><CLASSIFICATION_TYPE>U</CLASSIFICATION_TYPE><NORAD_CAT_ID>61565</NORAD_CAT_ID><ELEMENT_SET_NO>999</ELEMENT_SET_NO><REV_AT_EPOCH>6532</REV_AT_EPOCH><BSTAR>.26278054E-3</BSTAR><MEAN_MOTION_DOT>.181E-5</MEAN_MOTION_DOT><MEAN_MOTION_DDOT>0</MEAN_MOTION_DDOT></tleParameters></data></segment></body></omm>

</ndm>
