QIANFAN-25              
1 61558U 24185G   25326.50945608  .00000515  00000+0  30638-3 0  9993
2 61558  88.9806  80.4740 0010209  23.4050 336.7595 14.05882893 66665
QIANFAN-26              
1 61559U 24185H   25326.55924037  .00000356  00000+0  34300-3 0  9995
2 61559  88.9806  81.9240 0007337  80.0629 280.1365 13.77796028 65899
QIANFAN-27              
1 61560U 24185J   25326.55788088  .00000610  00000+0  24326-3 0  9991
2 61560  88.9801  79.3049 0007735  11.8626 348.2749 14.27295950 67286
QIANFAN-28              
1 61561U 24185K   25326.54980118  .00001084  00000+0  43157-3 0  9998
2 61561  88.9819  79.3074 0006978  12.6561 347.4808 14.27974296 67294
QIANFAN-29              
1 61562U 24185L   25326.59392946  .00000195  00000+0  28320-3 0  9997
2 61562  88.9782  83.3875 0011795 108.9361 251.3070 13.51000604 65075
QIANFAN-30              
1 61563U 24185M   25326.55354144  .00000280  00000+0  42235-3 0  9998
2 61563  88.9802  82.9094 0009265  96.6253 263.5952 13.49979787 65347
QIANFAN-31              
1 61564U 24185N   25326.56675240  .00000123  00000+0  15331-3 0  9996
2 61564  88.9786  82.7421 0008700  92.7785 267.4366 13.57954258 65427
QIANFAN-32              
1 61565U 24185P   25326.60720226  .00000181  00000+0  26278-3 0  9993
2 61565  88.9846  83.0319 0011123 118.9452 241.2815 13.50724687 65322
